1 48640U 21044C   22077.47620551  .00009915  00000-0  68360-3 0  9991
2 48640  53.0530 155.8629 0001338  60.8520 299.2602 15.06398299 45733
1 48640U 21044C   22077.54255222  .00010415  00000-0  71704-3 0  9991
2 48640  53.0530 155.5651 0001374  60.0427 300.0698 15.06400606 44903
1 48640U 21044C   22077.67524496  .00011119  00000-0  76407-3 0  9994
2 48640  53.0529 154.9695 0001383  59.6201 300.4924 15.06405302 44922
1 48640U 21044C   22078.53774384  .00010319  00000-0  71017-3 0  9996
2 48640  53.0530 151.0975 0001392  58.6295 301.4830 15.06422608 45055
1 48640U 21044C   22078.67043490  .00010575  00000-0  72728-3 0  9992
2 48640  53.0529 150.5018 0001397  57.7709 302.3415 15.06426065 45072
1 48640U 21044C   22078.67043490  .00010575  00000-0  72728-3 0  9992
2 48640  53.0529 150.5018 0001397  57.7709 302.3415 15.06426065 45915
1 48640U 21044C   22079.46658973  .00006364  00000-0  44550-3 0  9991
2 48640  53.0529 146.9276 0001486  58.5642 301.5492 15.06423185 45190
1 48640U 21044C   22079.46658973  .00006364  00000-0  44550-3 0  9991
2 48640  53.0529 146.9276 0001486  58.5642 301.5492 15.06423185 46034
1 48640U 21044C   22079.66562705  .00006469  00000-0  45251-3 0  9995
2 48640  53.0529 146.0340 0001495  59.2769 300.8368 15.06424711 45225
1 48640U 21044C   22080.46178353  .00000025  00000-0  20599-4 0  9998
2 48640  53.0525 142.4587 0001480  56.9575 303.1556 15.06412847 46185
1 48640U 21044C   22080.52812963  .00000087  00000-0  24734-4 0  9990
2 48640  53.0528 142.1619 0001482  58.2726 301.8408 15.06412671 45350
1 48640U 21044C   22080.59447548  .00000437  00000-0  48193-4 0  9994
2 48640  53.0529 141.8641 0001420  58.3459 301.7669 15.06414674 45362
1 48640U 21044C   22081.45699118 -.00000805  00000-0 -35129-4 0  9998
2 48640  53.0538 137.9914 0001573  58.4621 301.6521 15.06400730 46334
1 48640U 21044C   22081.52334371 -.00001880  00000-0 -10734-3 0  9991
2 48640  53.0543 137.6944 0001512  61.7980 298.3162 15.06393840 45502
1 48640U 21044C   22081.52334371 -.00001880  00000-0 -10734-3 0  9991
2 48640  53.0543 137.6944 0001512  61.7980 298.3162 15.06393840 46345
1 48640U 21044C   22081.85507764 -.00002143  00000-0 -12501-3 0  9992
2 48640  53.0538 136.2048 0001495  58.4653 301.6482 15.06394369 45551
1 48640U 21044C   22082.51854184 -.00000841  00000-0 -37599-4 0  9995
2 48640  53.0539 133.2265 0001451  51.3639 308.7480 15.06400201 45658
1 48640U 21044C   22082.65123619 -.00000191  00000-0  60470-5 0  9994
2 48640  53.0539 132.6309 0001516  63.0357 297.0786 15.06397522 45671
1 48640U 21044C   22082.65123619 -.00000191  00000-0  60470-5 0  9994
2 48640  53.0539 132.6309 0001516  63.0357 297.0786 15.06397522 46515
1 48640U 21044C   22083.51373993  .00002160  00000-0  16389-3 0  9997
2 48640  53.0538 128.7589 0001652  60.6149 299.5005 15.06400839 45801
1 48640U 21044C   22083.84547205  .00003480  00000-0  25236-3 0  9999
2 48640  53.0539 127.2693 0001665  62.2988 297.8170 15.06402162 45855
1 48640U 21044C   22083.84547205  .00003480  00000-0  25236-3 0  9999
2 48640  53.0539 127.2693 0001665  62.2988 297.8170 15.06402162 46698
1 48640U 21044C   22084.37625446  .00002031  00000-0  15522-3 0  9990
2 48640  53.0539 124.8865 0001680  64.3040 295.8123 15.06396920 46770
1 48640U 21044C   22084.50894710  .00001579  00000-0  12490-3 0  9994
2 48640  53.0539 124.2907 0001663  64.1367 295.9793 15.06399215 45955
1 48640U 21044C   22084.84068016  .00001438  00000-0  11544-3 0  9996
2 48640  53.0540 122.8015 0001670  64.1854 295.9307 15.06400923 46007
1 48640U 21044C   22085.50415107 -.00000652  00000-0 -24842-4 0  9992
2 48640  53.0543 119.8231 0001650  62.0344 298.0812 15.06397475 46940
1 48640U 21044C   22086.36665199  .00001387  00000-0  11202-3 0  9994
2 48640  53.0538 115.9507 0001595  55.6627 304.4513 15.06401709 47078
1 48640U 21044C   22086.49935083  .00000530  00000-0  54489-4 0  9994
2 48640  53.0536 115.3550 0001598  53.7694 306.3442 15.06397081 46252
1 48640U 21044C   22086.76473780  .00000363  00000-0  43291-4 0  9998
2 48640  53.0535 114.1637 0001598  52.9857 307.1278 15.06398173 46299
1 48640U 21044C   22086.76473780  .00000363  00000-0  43291-4 0  9998
2 48640  53.0535 114.1637 0001598  52.9857 307.1278 15.06398173 47133
1 48640U 21044C   22087.09647772  .00000476  00000-0  50884-4 0  9990
2 48640  53.0540 112.6750 0001611  53.2964 306.8172 15.06389751 47183
1 48640U 21044C   22087.42820727  .00001414  00000-0  11379-3 0  9998
2 48640  53.0540 111.1858 0001613  54.9290 305.1850 15.06396155 47235
1 48640U 21044C   22087.75993808  .00001827  00000-0  14154-3 0  9997
2 48640  53.0540 109.6965 0001618  54.2168 305.8971 15.06400778 46448
1 48640U 21044C   22088.48976097  .00001302  00000-0  10629-3 0  9990
2 48640  53.0542 106.4204 0001914  72.6827 287.4371 15.06394557 47397
1 48640U 21044C   22088.55610562  .00000660  00000-0  63228-4 0  9990
2 48640  53.0541 106.1222 0001674  56.0495 304.0653 15.06399043 46565
1 48640U 21044C   22088.75514510  .00001887  00000-0  14558-3 0  9991
2 48640  53.0542 105.2287 0001648  55.6548 304.4596 15.06399737 46595
1 48640U 21044C   22089.41862256  .00000112  00000-0  26446-4 0  9998
2 48640  53.0542 102.2500 0001661  56.8708 303.2440 15.06392691 46694
1 48640U 21044C   22089.41862256  .00000112  00000-0  26446-4 0  9998
2 48640  53.0542 102.2500 0001661  56.8708 303.2440 15.06392691 47538
1 48640U 21044C   22090.21477768  .00001319  00000-0  10744-3 0  9991
2 48640  53.0542  98.6754 0001699  57.6040 302.5113 15.06402273 47656
1 48640U 21044C   22090.48016123  .00002846  00000-0  20986-3 0  9999
2 48640  53.0543  97.4839 0001681  59.0787 301.0367 15.06405903 46852
1 48640U 21044C   22090.74554680  .00002696  00000-0  19977-3 0  9994
2 48640  53.0544  96.2922 0001649  60.2340 299.8813 15.06408476 46898
1 48640U 21044C   22091.40901606  .00001810  00000-0  14033-3 0  9997
2 48640  53.0535  93.3139 0001663  62.4158 297.6999 15.06410492 47830
1 48640U 21044C   22092.20517645  .00000671  00000-0  63940-4 0  9998
2 48640  53.0535  89.7391 0001507  61.7290 298.3850 15.06405440 47959
1 48640U 21044C   22092.47056939 -.00000312  00000-0 -20562-5 0  9999
2 48640  53.0550  88.5482 0001574  50.5149 309.5979 15.06398873 47999
1 48640U 21044C   22093.39943781 -.00002557  00000-0 -15291-3 0  9995
2 48640  53.0545  84.3786 0001630  57.2911 302.8235 15.06384314 48131
1 48640U 21044C   22093.46578373 -.00002585  00000-0 -15476-3 0  9990
2 48640  53.0548  84.0811 0001759  58.6735 301.4426 15.06383901 47307
1 48640U 21044C   22094.32829092  .00001581  00000-0  12502-3 0  9993
2 48640  53.0549  80.2091 0001642  57.7316 302.3831 15.06389178 47438
1 48640U 21044C   22094.32829092  .00001581  00000-0  12502-3 0  9993
2 48640  53.0549  80.2091 0001642  57.7316 302.3831 15.06389178 48271
1 48640U 21044C   22094.66002036  .00002275  00000-0  17156-3 0  9992
2 48640  53.0549  78.7200 0001637  58.0879 302.0269 15.06398590 48323
1 48640U 21044C   22094.92540489  .00001073  00000-0  90907-4 0  9991
2 48640  53.0542  77.5279 0001967  57.6228 302.4952 15.06406237 47520
1 48640U 21044C   22095.45618560  .00003319  00000-0  24159-3 0  9996
2 48640  53.0543  75.1459 0001911  63.4354 296.6831 15.06399822 47609
1 48640U 21044C   22096.18599974  .00001451  00000-0  11632-3 0  9991
2 48640  53.0543  71.8689 0001639  64.6013 295.5146 15.06401344 48554
1 48640U 21044C   22096.45138620  .00003035  00000-0  22255-3 0  9991
2 48640  53.0542  70.6777 0001616  62.8772 297.2382 15.06402793 47756
1 48640U 21044C   22096.91581921 -.00000216  00000-0  43697-5 0  9992
2 48640  53.0544  68.5929 0001604  62.8008 297.3144 15.06389994 47824
1 48640U 21044C   22097.18120597 -.00000403  00000-0 -81787-5 0  9991
2 48640  53.0546  67.4013 0001568  60.2538 299.8607 15.06395696 48702
1 48640U 21044C   22097.38024414  .00000734  00000-0  68156-4 0  9993
2 48640  53.0549  66.5078 0001643  65.8299 294.2862 15.06402584 47891
1 48640U 21044C   22097.64563110  .00004307  00000-0  30786-3 0  9990
2 48640  53.0550  65.3165 0001614  63.9796 296.1359 15.06404128 48772
1 48640U 21044C   22098.37544398  .00007183  00000-0  50044-3 0  9992
2 48640  53.0549  62.0406 0001536  59.6203 300.4938 15.06413290 48042
1 48640U 21044C   22099.17160901 -.00000024  00000-0  17285-4 0  9994
2 48640  53.0550  58.4669 0001490  57.5989 302.5144 15.06395764 49005
1 48640U 21044C   22099.56969017 -.00001250  00000-0 -65026-4 0  9991
2 48640  53.0551  56.6795 0001515  61.0333 299.0807 15.06394135 48227
1 48640U 21044C   22100.16682728 -.00001847  00000-0 -10515-3 0  9995
2 48640  53.0561  53.9992 0001480  61.2310 298.8828 15.06382481 49159
1 48640U 21044C   22100.36586451 -.00001567  00000-0 -86339-4 0  9990
2 48640  53.0561  53.1055 0001488  61.2329 298.8809 15.06388658 49183
1 48640U 21044C   22100.56490133 -.00001013  00000-0 -49129-4 0  9995
2 48640  53.0562  52.2121 0001494  60.8004 299.3135 15.06394334 48376
1 48640U 21044C   22100.56490133 -.00001013  00000-0 -49129-4 0  9995
2 48640  53.0562  52.2121 0001494  60.8004 299.3135 15.06394334 49210
1 48640U 21044C   22101.16201252  .00002165  00000-0  16419-3 0  9996
2 48640  53.0561  49.5317 0001493  62.4401 297.6740 15.06401380 49306
1 48640U 21044C   22101.56010382  .00000534  00000-0  54772-4 0  9995
2 48640  53.0562  47.7449 0001525  61.8855 298.2288 15.06391839 48529
1 48640U 21044C   22102.15724271  .00000064  00000-0  23191-4 0  9999
2 48640  53.0563  45.0648 0001500  63.1889 296.9253 15.06373532 49457
1 48640U 21044C   22102.22359255 -.00000350  00000-0 -46367-5 0  9994
2 48640  53.0562  44.7667 0001503  60.9545 299.1594 15.06371520 48626
1 48640U 21044C   22103.15244085 -.00000720  00000-0 -29472-4 0  9999
2 48640  53.0563  40.5979 0001563  59.9965 300.1179 15.06397200 49601
1 48640U 21044C   22103.55051453  .00000182  00000-0  31142-4 0  9995
2 48640  53.0565  38.8112 0001561  65.0238 295.0913 15.06405189 48828
1 48640U 21044C   22103.55051453  .00000182  00000-0  31142-4 0  9995
2 48640  53.0565  38.8112 0001561  65.0238 295.0913 15.06405189 49661
